CCSDS_OMM_VERS = 2.0
CREATION_DATE  = 
ORIGINATOR     = 

OBJECT_NAME    = AQUA
OBJECT_ID      = 2002-022A
CENTER_NAME    = EARTH
REF_FRAME      = TEME
TIME_SYSTEM    = UTC
MEAN_ELEMENT_THEORY = SGP/SGP4

EPOCH          = 2026-03-09T11:43:41.921760
MEAN_MOTION    = 14.61976364
ECCENTRICITY   = .000056
INCLINATION    = 98.4175
RA_OF_ASC_NODE = 35.8499
ARG_OF_PERICENTER = 79.6107
MEAN_ANOMALY   = 31.1783

EPHEMERIS_TYPE = 0
CLASSIFICATION_TYPE = U
NORAD_CAT_ID   = 27424
ELEMENT_SET_NO = 999
REV_AT_EPOCH   = 26870
BSTAR          = .28311E-3
MEAN_MOTION_DOT = .1369E-4
MEAN_MOTION_DDOT = 0

CCSDS_OMM_VERS = 2.0
CREATION_DATE  = 
ORIGINATOR     = 

OBJECT_NAME    = CZ-4B R/B
OBJECT_ID      = 2002-024C
CENTER_NAME    = EARTH
REF_FRAME      = TEME
TIME_SYSTEM    = UTC
MEAN_ELEMENT_THEORY = SGP/SGP4

EPOCH          = 2026-03-09T10:13:46.926048
MEAN_MOTION    = 14.14547510
ECCENTRICITY   = .0050496
INCLINATION    = 98.8840
RA_OF_ASC_NODE = 121.8343
ARG_OF_PERICENTER = 24.9656
MEAN_ANOMALY   = 346.2144

EPHEMERIS_TYPE = 0
CLASSIFICATION_TYPE = U
NORAD_CAT_ID   = 27432
ELEMENT_SET_NO = 999
REV_AT_EPOCH   = 22920
BSTAR          = .41354E-4
MEAN_MOTION_DOT = .36E-6
MEAN_MOTION_DDOT = 0

CCSDS_OMM_VERS = 2.0
CREATION_DATE  = 
ORIGINATOR     = 

OBJECT_NAME    = MIDORI II (ADEOS-II)
OBJECT_ID      = 2002-056A
CENTER_NAME    = EARTH
REF_FRAME      = TEME
TIME_SYSTEM    = UTC
MEAN_ELEMENT_THEORY = SGP/SGP4

EPOCH          = 2026-03-09T10:53:18.218976
MEAN_MOTION    = 14.29284888
ECCENTRICITY   = .0001589
INCLINATION    = 98.7770
RA_OF_ASC_NODE = 26.9296
ARG_OF_PERICENTER = 42.8915
MEAN_ANOMALY   = 317.2390

EPHEMERIS_TYPE = 0
CLASSIFICATION_TYPE = U
NORAD_CAT_ID   = 27597
ELEMENT_SET_NO = 999
REV_AT_EPOCH   = 21026
BSTAR          = .17717E-3
MEAN_MOTION_DOT = .405E-5
MEAN_MOTION_DDOT = 0

CCSDS_OMM_VERS = 2.0
CREATION_DATE  = 
ORIGINATOR     = 

OBJECT_NAME    = H-2A R/B
OBJECT_ID      = 2002-056E
CENTER_NAME    = EARTH
REF_FRAME      = TEME
TIME_SYSTEM    = UTC
MEAN_ELEMENT_THEORY = SGP/SGP4

EPOCH          = 2026-03-09T12:11:49.463232
MEAN_MOTION    = 14.33760506
ECCENTRICITY   = .0070501
INCLINATION    = 98.3203
RA_OF_ASC_NODE = 28.8807
ARG_OF_PERICENTER = 161.2005
MEAN_ANOMALY   = 312.7514

EPHEMERIS_TYPE = 0
CLASSIFICATION_TYPE = U
NORAD_CAT_ID   = 27601
ELEMENT_SET_NO = 999
REV_AT_EPOCH   = 21408
BSTAR          = .13419E-3
MEAN_MOTION_DOT = .342E-5
MEAN_MOTION_DDOT = 0

CCSDS_OMM_VERS = 2.0
CREATION_DATE  = 
ORIGINATOR     = 

OBJECT_NAME    = CZ-4B R/B
OBJECT_ID      = 2003-049C
CENTER_NAME    = EARTH
REF_FRAME      = TEME
TIME_SYSTEM    = UTC
MEAN_ELEMENT_THEORY = SGP/SGP4

EPOCH          = 2026-03-09T12:30:19.245312
MEAN_MOTION    = 14.55019988
ECCENTRICITY   = .0047247
INCLINATION    = 98.6880
RA_OF_ASC_NODE = 63.4192
ARG_OF_PERICENTER = 231.4276
MEAN_ANOMALY   = 128.2683

EPHEMERIS_TYPE = 0
CLASSIFICATION_TYPE = U
NORAD_CAT_ID   = 28059
ELEMENT_SET_NO = 999
REV_AT_EPOCH   = 18657
BSTAR          = .12473E-3
MEAN_MOTION_DOT = .493E-5
MEAN_MOTION_DDOT = 0

CCSDS_OMM_VERS = 2.0
CREATION_DATE  = 
ORIGINATOR     = 

OBJECT_NAME    = CZ-2C R/B
OBJECT_ID      = 2004-012C
CENTER_NAME    = EARTH
REF_FRAME      = TEME
TIME_SYSTEM    = UTC
MEAN_ELEMENT_THEORY = SGP/SGP4

EPOCH          = 2026-03-08T17:07:40.588608
MEAN_MOTION    = 15.64372887
ECCENTRICITY   = .00130043
INCLINATION    = 97.7226
RA_OF_ASC_NODE = 132.9135
ARG_OF_PERICENTER = 313.5636
MEAN_ANOMALY   = 46.4542

EPHEMERIS_TYPE = 0
CLASSIFICATION_TYPE = U
NORAD_CAT_ID   = 28222
ELEMENT_SET_NO = 999
REV_AT_EPOCH   = 20412
BSTAR          = .79990664E-3
MEAN_MOTION_DOT = .77297E-3
MEAN_MOTION_DDOT = 0

CCSDS_OMM_VERS = 2.0
CREATION_DATE  = 
ORIGINATOR     = 

OBJECT_NAME    = SL-16 R/B
OBJECT_ID      = 2004-021B
CENTER_NAME    = EARTH
REF_FRAME      = TEME
TIME_SYSTEM    = UTC
MEAN_ELEMENT_THEORY = SGP/SGP4

EPOCH          = 2026-03-09T12:39:55.230912
MEAN_MOTION    = 14.14598066
ECCENTRICITY   = .0004032
INCLINATION    = 70.9995
RA_OF_ASC_NODE = 232.8323
ARG_OF_PERICENTER = 9.7045
MEAN_ANOMALY   = 350.4154

EPHEMERIS_TYPE = 0
CLASSIFICATION_TYPE = U
NORAD_CAT_ID   = 28353
ELEMENT_SET_NO = 999
REV_AT_EPOCH   = 12281
BSTAR          = -.10049E-3
MEAN_MOTION_DOT = -.241E-5
MEAN_MOTION_DDOT = 0

CCSDS_OMM_VERS = 2.0
CREATION_DATE  = 
ORIGINATOR     = 

OBJECT_NAME    = CZ-4B R/B
OBJECT_ID      = 2004-035C
CENTER_NAME    = EARTH
REF_FRAME      = TEME
TIME_SYSTEM    = UTC
MEAN_ELEMENT_THEORY = SGP/SGP4

EPOCH          = 2026-03-09T12:23:52.395360
MEAN_MOTION    = 15.29060829
ECCENTRICITY   = .0031036
INCLINATION    = 97.3499
RA_OF_ASC_NODE = 102.7607
ARG_OF_PERICENTER = 332.1970
MEAN_ANOMALY   = 27.7609

EPHEMERIS_TYPE = 0
CLASSIFICATION_TYPE = U
NORAD_CAT_ID   = 28415
ELEMENT_SET_NO = 999
REV_AT_EPOCH   = 17988
BSTAR          = .33377E-3
MEAN_MOTION_DOT = .9479E-4
MEAN_MOTION_DDOT = 0

CCSDS_OMM_VERS = 2.0
CREATION_DATE  = 
ORIGINATOR     = 

OBJECT_NAME    = CZ-2C R/B
OBJECT_ID      = 2004-046B
CENTER_NAME    = EARTH
REF_FRAME      = TEME
TIME_SYSTEM    = UTC
MEAN_ELEMENT_THEORY = SGP/SGP4

EPOCH          = 2026-03-09T08:17:16.958688
MEAN_MOTION    = 14.26991872
ECCENTRICITY   = .0139868
INCLINATION    = 98.1983
RA_OF_ASC_NODE = 343.3508
ARG_OF_PERICENTER = 155.4512
MEAN_ANOMALY   = 205.3414

EPHEMERIS_TYPE = 0
CLASSIFICATION_TYPE = U
NORAD_CAT_ID   = 28480
ELEMENT_SET_NO = 999
REV_AT_EPOCH   = 10845
BSTAR          = .70442E-4
MEAN_MOTION_DOT = .15E-5
MEAN_MOTION_DDOT = 0

CCSDS_OMM_VERS = 2.0
CREATION_DATE  = 
ORIGINATOR     = 

OBJECT_NAME    = ARIANE 5 R/B
OBJECT_ID      = 2004-049H
CENTER_NAME    = EARTH
REF_FRAME      = TEME
TIME_SYSTEM    = UTC
MEAN_ELEMENT_THEORY = SGP/SGP4

EPOCH          = 2026-03-09T10:20:00.381408
MEAN_MOTION    = 14.85265161
ECCENTRICITY   = .0083955
INCLINATION    = 98.2627
RA_OF_ASC_NODE = 236.8779
ARG_OF_PERICENTER = 352.7695
MEAN_ANOMALY   = 7.2301

EPHEMERIS_TYPE = 0
CLASSIFICATION_TYPE = U
NORAD_CAT_ID   = 28499
ELEMENT_SET_NO = 999
REV_AT_EPOCH   = 14575
BSTAR          = .11561E-3
MEAN_MOTION_DOT = .991E-5
MEAN_MOTION_DDOT = 0

CCSDS_OMM_VERS = 2.0
CREATION_DATE  = 
ORIGINATOR     = 

OBJECT_NAME    = CZ-2D R/B
OBJECT_ID      = 2005-024B
CENTER_NAME    = EARTH
REF_FRAME      = TEME
TIME_SYSTEM    = UTC
MEAN_ELEMENT_THEORY = SGP/SGP4

EPOCH          = 2026-03-09T12:24:26.341056
MEAN_MOTION    = 15.60128225
ECCENTRICITY   = .0005906
INCLINATION    = 97.3601
RA_OF_ASC_NODE = 83.6565
ARG_OF_PERICENTER = 46.9987
MEAN_ANOMALY   = 313.1764

EPHEMERIS_TYPE = 0
CLASSIFICATION_TYPE = U
NORAD_CAT_ID   = 28738
ELEMENT_SET_NO = 999
REV_AT_EPOCH   = 13975
BSTAR          = .56066E-3
MEAN_MOTION_DOT = .4561E-3
MEAN_MOTION_DDOT = 0

CCSDS_OMM_VERS = 2.0
CREATION_DATE  = 
ORIGINATOR     = 

OBJECT_NAME    = ALOS (DAICHI)
OBJECT_ID      = 2006-002A
CENTER_NAME    = EARTH
REF_FRAME      = TEME
TIME_SYSTEM    = UTC
MEAN_ELEMENT_THEORY = SGP/SGP4

EPOCH          = 2026-03-09T10:26:11.828832
MEAN_MOTION    = 14.69809715
ECCENTRICITY   = .0000938
INCLINATION    = 98.1218
RA_OF_ASC_NODE = 24.3916
ARG_OF_PERICENTER = 58.3478
MEAN_ANOMALY   = 301.7820

EPHEMERIS_TYPE = 0
CLASSIFICATION_TYPE = U
NORAD_CAT_ID   = 28931
ELEMENT_SET_NO = 999
REV_AT_EPOCH   = 7344
BSTAR          = .31667E-3
MEAN_MOTION_DOT = .1841E-4
MEAN_MOTION_DDOT = 0

