AQUA                    
1 27424U 02022A   26068.48867965  .00001369  00000+0  28311-3 0  9996
2 27424  98.4175  35.8499 0000560  79.6107  31.1783 14.61976364268707
CZ-4B R/B               
1 27432U 02024C   26068.42623757  .00000036  00000+0  41354-4 0  9993
2 27432  98.8840 121.8343 0050496  24.9656 346.2144 14.14547510229206
MIDORI II (ADEOS-II)    
1 27597U 02056A   26068.45368309  .00000405  00000+0  17717-3 0  9997
2 27597  98.7770  26.9296 0001589  42.8915 317.2390 14.29284888210266
H-2A R/B                
1 27601U 02056E   26068.50821138  .00000342  00000+0  13419-3 0  9998
2 27601  98.3203  28.8807 0070501 161.2005 312.7514 14.33760506214087
CZ-4B R/B               
1 28059U 03049C   26068.52105608  .00000493  00000+0  12473-3 0  9994
2 28059  98.6880  63.4192 0047247 231.4276 128.2683 14.55019988186576
CZ-2C R/B               
1 28222U 04012C   26067.71366422  .00077297  00000+0  79991-3 0  9994
2 28222  97.7226 132.9135 0013004 313.5636  46.4542 15.64372887204125
SL-16 R/B               
1 28353U 04021B   26068.52772258 -.00000241  00000+0 -10049-3 0  9993
2 28353  70.9995 232.8323 0004032   9.7045 350.4154 14.14598066122819
CZ-4B R/B               
1 28415U 04035C   26068.51657865  .00009479  00000+0  33377-3 0  9991
2 28415  97.3499 102.7607 0031036 332.1970  27.7609 15.29060829179880
CZ-2C R/B               
1 28480U 04046B   26068.34533517  .00000150  00000+0  70442-4 0  9995
2 28480  98.1983 343.3508 0139868 155.4512 205.3414 14.26991872108452
ARIANE 5 R/B            
1 28499U 04049H   26068.43055997  .00000991  00000+0  11561-3 0  9998
2 28499  98.2627 236.8779 0083955 352.7695   7.2301 14.85265161145751
CZ-2D R/B               
1 28738U 05024B   26068.51697154  .00045610  00000+0  56066-3 0  9990
2 28738  97.3601  83.6565 0005906  46.9987 313.1764 15.60128225139754
ALOS (DAICHI)           
1 28931U 06002A   26068.43485913  .00001841  00000+0  31667-3 0  9999
2 28931  98.1218  24.3916 0000938  58.3478 301.7820 14.69809715 73443
